0 CTDRS
1 32779U 08019A   13282.59945888 -.00000151  00000-0  00000+0 0  5744
2 32779 000.0523 054.0716 0034201 227.2818 032.9221 01.00272364 20009
0 CTDRS
1 32779U 08019A   13282.97723580  .00000000  00000-0  10000-3 0  5768
2 32779 000.0354 061.4315 0034499 219.5188 169.7104 01.00270378 19977
0 CTDRS
1 32779U 08019A   13283.06737025 -.00000153  00000-0  00000+0 0  5752
2 32779 000.0532 043.3205 0034277 238.0889 201.7729 01.00272114 20017
0 CTDRS
1 32779U 08019A   13284.08763916 -.00000156  00000-0  00000+0 0  5767
2 32779 000.0540 044.7695 0034334 236.6307 210.0830 01.00271931 20020
0 CTDRS
1 32779U 08019A   13285.67297774 -.00000160  00000-0  00000+0 0  5773
2 32779 000.0558 044.9699 0034384 236.4474 062.3484 01.00271738 20032
0 CTDRS
1 32779U 08019A   13286.78423520 -.00000162  00000-0  00000+0 0  5789
2 32779 000.0562 047.1529 0034576 234.2692 103.4864 01.00271507 20050
0 CTDRS
1 32779U 08019A   13287.84347059 -.00000162  00000-0  00000+0 0  5790
2 32779 000.0576 047.7787 0034559 233.6357 125.8606 01.00271394 20066
0 CTDRS
1 32779U 08019A   13288.85060441 -.00000161  00000-0  00000+0 0  5800
2 32779 000.0592 048.8988 0034642 232.5365 129.3959 01.00271238 20077
0 CTDRS
1 32779U 08019A   13290.02875600 -.00000159  00000-0  00000+0 0  5811
2 32779 000.0603 049.7730 0034804 231.6694 194.6783 01.00271066 20080
0 CTDRS
1 32779U 08019A   13290.59713439 -.00000158  00000-0  00000+0 0  5824
2 32779 000.0605 058.6406 0034794 222.1031 040.5521 01.00270880 20081
0 CTDRS
1 32779U 08019A   13291.83410014 -.00000155  00000-0  00000+0 0  5833
2 32779 000.0626 059.0426 0034934 221.7941 126.9828 01.00270914 20102
0 CTDRS
1 32779U 08019A   13292.90127465 -.00000153  00000-0  00000+0 0  5846
2 32779 000.0647 061.1347 0035010 219.7602 152.1567 01.00270925 20112
0 CTDRS
1 32779U 08019A   13294.10113938 -.00000151  00000-0  00000+0 0  5859
2 32779 000.0649 062.3303 0035151 218.5521 225.2989 01.00270848 20127
0 CTDRS
1 32779U 08019A   13295.10876531 -.00000150  00000-0  00000+0 0  5865
2 32779 000.0664 062.9090 0035205 217.9739 229.0338 01.00270807 20133
